CZ-2C R/B               
1 54039U 22132E   26043.49393797  .00044689  00000+0  55530-3 0  9998
2 54039  97.2963  46.0931 0018836 175.2639 184.8800 15.59648664186447
GSLV R/B                
1 54149U 22138AN  26043.38080029  .00004208  00000+0  36603-3 0  9998
2 54149  87.3866 174.8307 0019572 240.6303 119.2975 14.96581704180148
XRISM                   
1 57800U 23137A   26043.47772146  .00007044  00000+0  40346-3 0  9993
2 57800  31.0024  86.6897 0008142 147.9623 212.1511 15.11188016133971
ACS3                    
1 59588U 24077B   26043.43014840  .00019820  00000+0  16331-1 0  9998
2 59588  97.2198 350.2213 0046301 153.3789 206.9766 13.88553415 90692
SZ-21 MODULE            
1 66515U 25246C   26043.27056566  .00039145  00000+0  36437-3 0  9991
2 66515  41.4762 359.5986 0002500 292.2665  67.7911 15.66611010 14084
