CCSDS_OMM_VERS = 2.0
CREATION_DATE  = 
ORIGINATOR     = 

OBJECT_NAME    = CZ-2C R/B
OBJECT_ID      = 2022-132E
CENTER_NAME    = EARTH
REF_FRAME      = TEME
TIME_SYSTEM    = UTC
MEAN_ELEMENT_THEORY = SGP/SGP4

EPOCH          = 2026-02-12T11:51:16.240608
MEAN_MOTION    = 15.59648664
ECCENTRICITY   = .00188361
INCLINATION    = 97.2963
RA_OF_ASC_NODE = 46.0931
ARG_OF_PERICENTER = 175.2639
MEAN_ANOMALY   = 184.8800

EPHEMERIS_TYPE = 0
CLASSIFICATION_TYPE = U
NORAD_CAT_ID   = 54039
ELEMENT_SET_NO = 999
REV_AT_EPOCH   = 18644
BSTAR          = .55530346E-3
MEAN_MOTION_DOT = .44689E-3
MEAN_MOTION_DDOT = 0

CCSDS_OMM_VERS = 2.0
CREATION_DATE  = 
ORIGINATOR     = 

OBJECT_NAME    = GSLV R/B
OBJECT_ID      = 2022-138AN
CENTER_NAME    = EARTH
REF_FRAME      = TEME
TIME_SYSTEM    = UTC
MEAN_ELEMENT_THEORY = SGP/SGP4

EPOCH          = 2026-02-12T09:08:21.145056
MEAN_MOTION    = 14.96581704
ECCENTRICITY   = .00195728
INCLINATION    = 87.3866
RA_OF_ASC_NODE = 174.8307
ARG_OF_PERICENTER = 240.6303
MEAN_ANOMALY   = 119.2975

EPHEMERIS_TYPE = 0
CLASSIFICATION_TYPE = U
NORAD_CAT_ID   = 54149
ELEMENT_SET_NO = 999
REV_AT_EPOCH   = 18014
BSTAR          = .36602647E-3
MEAN_MOTION_DOT = .4208E-4
MEAN_MOTION_DDOT = 0

CCSDS_OMM_VERS = 2.0
CREATION_DATE  = 
ORIGINATOR     = 

OBJECT_NAME    = XRISM
OBJECT_ID      = 2023-137A
CENTER_NAME    = EARTH
REF_FRAME      = TEME
TIME_SYSTEM    = UTC
MEAN_ELEMENT_THEORY = SGP/SGP4

EPOCH          = 2026-02-12T11:27:55.134144
MEAN_MOTION    = 15.11188016
ECCENTRICITY   = .00081427
INCLINATION    = 31.0024
RA_OF_ASC_NODE = 86.6897
ARG_OF_PERICENTER = 147.9623
MEAN_ANOMALY   = 212.1511

EPHEMERIS_TYPE = 0
CLASSIFICATION_TYPE = U
NORAD_CAT_ID   = 57800
ELEMENT_SET_NO = 999
REV_AT_EPOCH   = 13397
BSTAR          = .4034627E-3
MEAN_MOTION_DOT = .7044E-4
MEAN_MOTION_DDOT = 0

CCSDS_OMM_VERS = 2.0
CREATION_DATE  = 
ORIGINATOR     = 

OBJECT_NAME    = ACS3
OBJECT_ID      = 2024-077B
CENTER_NAME    = EARTH
REF_FRAME      = TEME
TIME_SYSTEM    = UTC
MEAN_ELEMENT_THEORY = SGP/SGP4

EPOCH          = 2026-02-12T10:19:24.821760
MEAN_MOTION    = 13.88553415
ECCENTRICITY   = .00463012
INCLINATION    = 97.2198
RA_OF_ASC_NODE = 350.2213
ARG_OF_PERICENTER = 153.3789
MEAN_ANOMALY   = 206.9766

EPHEMERIS_TYPE = 0
CLASSIFICATION_TYPE = U
NORAD_CAT_ID   = 59588
ELEMENT_SET_NO = 999
REV_AT_EPOCH   = 9069
BSTAR          = .16331286E-1
MEAN_MOTION_DOT = .1982E-3
MEAN_MOTION_DDOT = 0

CCSDS_OMM_VERS = 2.0
CREATION_DATE  = 
ORIGINATOR     = 

OBJECT_NAME    = SZ-21 MODULE
OBJECT_ID      = 2025-246C
CENTER_NAME    = EARTH
REF_FRAME      = TEME
TIME_SYSTEM    = UTC
MEAN_ELEMENT_THEORY = SGP/SGP4

EPOCH          = 2026-02-12T06:29:36.873024
MEAN_MOTION    = 15.66611010
ECCENTRICITY   = .00025
INCLINATION    = 41.4762
RA_OF_ASC_NODE = 359.5986
ARG_OF_PERICENTER = 292.2665
MEAN_ANOMALY   = 67.7911

EPHEMERIS_TYPE = 0
CLASSIFICATION_TYPE = U
NORAD_CAT_ID   = 66515
ELEMENT_SET_NO = 999
REV_AT_EPOCH   = 1408
BSTAR          = .36437E-3
MEAN_MOTION_DOT = .39145E-3
MEAN_MOTION_DDOT = 0

